GLOBALSTAR M023         
1 25621U 99004A   24338.59456323  .00000003  00000+0  59581-3 0  9998
2 25621  52.0113 289.0221 0010513  55.4454 116.0904 12.62485314191021
GLOBALSTAR M040         
1 25622U 99004B   24338.85663563 -.00000048  00000+0  31461-3 0  9991
2 25622  51.9926 292.0860 0001049 359.8839  23.2324 12.61992190190597
GLOBALSTAR M038         
1 25624U 99004D   24338.59759146 -.00000043  00000+0  42874-3 0  9992
2 25624  51.9979 274.8430 0002420  18.3787 152.9987 12.32515065178211
GLOBALSTAR M022         
1 25649U 99012A   24338.84409052 -.00000050  00000+0  43816-3 0  9999
2 25649  52.0028 101.9286 0003244 134.8703  32.2997 12.02492479152876
GLOBALSTAR M046         
1 25651U 99012C   24338.74519080  .00000016  00000+0  11538-2 0  9990
2 25651  52.0076  59.4666 0002268 204.1961 333.6076 12.09403415160013
GLOBALSTAR M037         
1 25652U 99012D   24338.64202300 -.00000022  00000+0  45570-3 0  9996
2 25652  52.0018  59.5644 0002597 117.9541  48.1171 12.62427960186570
